COSMOS 1844             
1 17973U 87041A   13053.34113200  .00000191  00000-0  12585-3 0  4061
2 17973  70.9010 354.2875 0032191 326.4086 178.5864 14.13842557330392
SL-14 R/B               
1 18153U 87055B   13053.75490685  .00000246  00000-0  27862-4 0  9518
2 18153  82.5026 142.6642 0021316 226.7052 279.8581 14.82216097384909
COSMOS 1867             
1 18187U 87060A   13054.20872936 -.00000034  00000-0  25210-4 0  6849
2 18187  65.0122 316.1941 0019450 281.2143 221.8226 14.30955256338634
SL-14 R/B               
1 18749U 88001B   13054.26018495  .00000222  00000-0  24791-4 0  9694
2 18749  82.5179 339.7956 0020834  97.6187  62.3989 14.82154646357092
COSMOS 1933             
1 18958U 88020A   13054.45366298  .00001223  00000-0  99169-4 0  9137
2 18958  82.5339 179.0717 0012111 219.5543 140.4798 14.98805886355238
SL-3 R/B                
1 19046U 88032B   13054.58354319 -.00000071  00000-0 -77334-6 0  4605
2 19046  97.7178 111.1155 0034896 265.8441  93.8793 14.97870136336520
SL-16 R/B               
1 19120U 88039B   13054.23504457 -.00000236  00000-0 -89856-4 0  7186
2 19120  71.0157  52.1601 0019637  80.8291   0.4739 14.18956844282965
COSMOS 1953             
1 19210U 88050A   13054.16291150  .00000785  00000-0  61838-4 0   230
2 19210  82.5189 114.7820 0015230 208.9277 151.1104 14.99361200341261
SL-8 R/B                
1 19257U 88053B   13053.92209488  .00000189  00000-0  72902-4 0  6845
2 19257  74.0492 231.2678 0020089 154.8318   6.6907 14.36745711292471
COSMOS 1975             
1 19573U 88093A   13054.54432377  .00001005  00000-0  82728-4 0  7952
2 19573  82.5216  62.8446 0015628 235.3907 124.5843 14.97977882323492
SL-14 R/B               
1 19574U 88093B   13054.44095581  .00000238  00000-0  26837-4 0  9503
2 19574  82.5353 176.4702 0020719 263.8592 161.1215 14.82254665316083
SL-16 R/B               
1 19650U 88102B   13054.57149590  .00000021  00000-0  35120-4 0  9441
2 19650  70.9995  85.6924 0012459  51.6855  92.6232 14.15608230253146
INTERCOSMOS 24          
1 20261U 89080A   13054.28457098  .00000439  00000-0  12238-3 0  9919
2 20261  82.5933 309.3437 1212578 124.7891 247.3449 12.54267527 68378
SL-14 R/B               
1 20262U 89080C   13054.40381013  .00000091  00000-0  26768-4 0  4932
2 20262  82.6004 344.2025 1239294 245.1179 281.0241 12.48154868 65199
DELTA 1 R/B             
1 20323U 89089B   13054.59591740  .00000078  00000-0  29889-4 0  5897
2 20323  97.0677 231.8516 0072294 352.6592  76.6783 14.47235517226893
DELTA 2 R/B(1)          
1 20453U 90008B   13053.39915396  .00002081  00000-0  14687-3 0  6120
2 20453  35.6293  36.3923 0347862 152.8078 209.1316 14.67189790215159
COSMOS 2058             
1 20465U 90010A   13054.39335844  .00000686  00000-0  63312-4 0  7097
2 20465  82.4949 317.5858 0017379 178.6686 181.4583 14.93059473249933
SL-14 R/B               
1 20466U 90010B   13053.54853731  .00000174  00000-0  19682-4 0  5613
2 20466  82.5023  46.0437 0022618 110.7770  38.2675 14.80372971244302
SL-14 R/B               
1 20511U 90018B   13053.87302081  .00000187  00000-0  22151-4 0  5614
2 20511  82.5268 340.3362 0016736 231.9843 189.2352 14.79077891239126
HST                     
1 20580U 90037B   13053.87353235  .00001309  00000-0  81876-4 0  1812
2 20580  28.4713 302.0476 0003602 210.3397 149.6983 15.03304810 52473
SL-16 R/B               
1 20625U 90046B   13054.61869431 -.00000044  00000-0  21041-5 0  3801
2 20625  70.9996 213.5112 0015726 331.4121  99.2700 14.14471763175174
COSMOS 2084             
1 20663U 90055A   13054.59147186  .00000250  00000-0  45113-4 0  7274
2 20663  62.7961  68.6772 0088679 161.8875 198.5411 14.87644762225197
SL-6 R/B(2)             
1 20666U 90055D   13054.22658863  .00000298  00000-0  50356-4 0  7914
2 20666  62.7901 354.3126 0058549 187.7582 172.2611 14.88399092226430
SL-8 R/B                
1 20775U 90078B   13054.06912361  .00004276  00000-0  23781-3 0   765
2 20775  82.9344 241.5757 0675903  90.5072  50.9186 14.10033178124933
SL-8 R/B                
1 21088U 91006B   13054.28931894  .00000105  00000-0  90581-4 0  5609
2 21088  82.9409 110.8485 0023483  51.8951  16.9304 13.76858531108862
OKEAN-3                 
1 21397U 91039A   13054.42595469  .00000774  00000-0  80051-4 0  8806
2 21397  82.5253 190.6371 0020640  92.4057 267.9524 14.88657643175139
COSMOS 2151             
1 21422U 91042A   13054.76194691  .00000464  00000-0  46539-4 0  5084
2 21422  82.5027 301.9579 0016448 138.8536 221.3926 14.88985987173944
SL-14 R/B               
1 21423U 91042B   13054.27790655  .00000239  00000-0  29253-4 0  3232
2 21423  82.4977 352.3908 0017777  12.0068 154.3835 14.78846294169746
ERS-1                   
1 21574U 91050A   13054.83951773  .00000216  00000-0  87732-4 0  5693
2 21574  98.2515  25.9003 0033162 348.3523  67.5135 14.36321341131485
ARIANE 40 R/B           
1 21610U 91050F   13054.60541462  .00000199  00000-0  78294-4 0  1496
2 21610  98.7649  63.5681 0002219 329.0978 138.2299 14.39831673133439
INTERCOSMOS 25          
1 21819U 91086A   13054.09986315  .00001367  00000-0  26872-3 0  9826
2 21819  82.5584 287.8054 1540035 190.4462 166.0833 12.00985682922879
SL-14 R/B               
1 21820U 91086B   13054.21058895  .00000265  00000-0  52674-4 0  8088
2 21820  82.5672 326.5572 1584286 321.6206  28.1825 11.91713817919047
SL-8 R/B                
1 21876U 92008B   13053.94725613  .00000004  00000-0 -11624-4 0  1627
2 21876  82.9269 207.8032 0036175 111.1765   3.3497 13.75453902 54822
SL-8 R/B                
1 21938U 92020B   13053.19877700 -.00000029  00000-0 -45573-4 0  2025
2 21938  82.9268  90.3945 0027808 267.7887 155.8647 13.75123527 46686
SL-16 R/B               
1 22220U 92076B   13053.76332244 -.00000244  00000-0 -98958-4 0  9765
2 22220  71.0008 135.0062 0011712 163.3291 343.3886 14.16253005 47700
SL-16 R/B               
1 22285U 92093B   13053.71999568  .00000143  00000-0  98825-4 0  9756
2 22285  71.0208 276.9024 0004734 340.6140  19.4802 14.14843550 39680
COSMOS 2228             
1 22286U 92094A   13054.53668434  .00000553  00000-0  62612-4 0  9406
2 22286  82.5200  55.8641 0020133 299.1875  60.7326 14.84555219 88574
SL-16 R/B               
1 22566U 93016B   13054.18298552  .00000056  00000-0  53724-4 0  7267
2 22566  71.0064 132.5283 0009651 359.8032   0.3095 14.14767898 28503
COSMOS 2242             
1 22626U 93024A   13054.60016184  .00000459  00000-0  51309-4 0  7050
2 22626  82.5203  83.4227 0018613 298.5019  61.4322 14.84664168 72239
SL-16 R/B               
1 22803U 93059B   13053.89613868  .00000012  00000-0  30062-4 0  9451
2 22803  70.9922 328.5497 0019485 265.4322  94.4575 14.16609303  5175
ARIANE 40 R/B           
1 22830U 93061H   13053.93948779  .00000056  00000-0  38669-4 0  8235
2 22830  98.7616  19.7303 0010599 205.7309 221.5690 14.30847552 12925
COSMOS 2278             
1 23087U 94023A   13054.85926454 -.00000180  00000-0 -70428-4 0  9743
2 23087  71.0559  48.7424 0006060  93.2925 312.3021 14.13498082972011
SL-16 R/B               
1 23088U 94023B   13054.25490983  .00000028  00000-0  39633-4 0  5963
2 23088  71.0022 347.3149 0004810 309.3682 202.9180 14.14517838972822
SL-16 R/B               
1 23343U 94074B   13054.57138449  .00000154  00000-0  30397-4 0  6367
2 23343  98.2011  45.7721 0008364  78.5977  70.5143 14.75632537984507
SL-16 R/B               
1 23405U 94077B   13052.63491558  .00000331  00000-0  19569-3 0  7014
2 23405  70.9824 289.7817 0003662 227.9433 160.6686 14.15027202942489
ERS-2                   
1 23560U 95021A   13054.46384696  .00002609  00000-0  18747-3 0  5872
2 23560  98.5346 196.1428 0004395 180.9489 219.6073 15.05315668937146
ARIANE 40+ R/B          
1 23561U 95021B   13053.98202302  .00000123  00000-0  56662-4 0  4194
2 23561  98.6182  12.7464 0006050 241.3286 160.2000 14.36888887934954
SL-16 R/B               
1 23705U 95058B   13053.54958429 -.00000269  00000-0 -11448-3 0  9149
2 23705  71.0217  94.4239 0012441 191.5121 168.5719 14.14961949894309
SL-16 R/B               
1 24298U 96051B   13054.26577762  .00000063  00000-0  60115-4 0  1203
2 24298  70.8671 140.0856 0014935 355.0955  64.2291 14.12414657849442
ORBVIEW 2 (SEASTAR)     
1 24883U 97037A   13054.39228578  .00000152  00000-0  71704-4 0  9674
2 24883  98.4380 172.0631 0003197  90.2826 269.8722 14.32587953826364
SL-16 R/B               
1 25400U 98043G   13054.05443209 -.00000047  00000-0 -26295-5 0  3126
2 25400  98.2882  51.3204 0009206 230.2417 129.7953 14.25181533760698
SL-16 R/B               
1 25407U 98045B   13053.72236259  .00000163  00000-0  10747-3 0  1277
2 25407  71.0116 111.7999 0005505  84.0091  64.4552 14.15598564753212
ISS (ZARYA)             
1 25544U 98067A   13054.92409722  .00008552  00000-0  14476-3 0  2828
2 25544  51.6494 310.8753 0011108 303.5985 232.0794 15.52389244817110
SL-8 R/B                
1 25723U 99022C   13053.60573791  .00004267  00000-0  19005-3 0  3284
2 25723  48.4395  92.6799 0019182 163.7052 333.9915 15.23238043763898
CZ-4B R/B               
1 25732U 99025C   13054.00226062 -.00000015  00000-0  14815-4 0  1964
2 25732  98.8349  27.5800 0036503 261.4110 128.4608 14.17359228713479
OKEAN-O                 
1 25860U 99039A   13053.96921249  .00000248  00000-0  44770-4 0  8758
2 25860  97.9765  18.0537 0001983 121.3421 269.4849 14.74484522731526
SL-16 R/B               
1 25861U 99039B   13053.54387719  .00000184  00000-0  33083-4 0  2502
2 25861  97.8828  16.2991 0017475 123.9974  10.0878 14.77207064733042
SL-14 R/B               
1 26874U 01032B   13054.56343969  .00004424  00000-0  97820-4 0  3124
2 26874  82.4774 120.6777 0018561 357.8044   2.3118 15.43325862647307
ENVISAT                 
1 27386U 02009A   13054.86297582  .00000025  00000-0  22687-4 0  1456
2 27386  98.4410 125.3044 0001040  96.5569 263.5718 14.37590058574851
